{
  "countries": [
    {
      "name": "Afghanistan",
      "dial_code": "+93",
      "code": "AF"
    },
    {
      "name": "Albania",
      "dial_code": "+355",
      "code": "AL"
    },
    {
      "name": "Algeria",
      "dial_code": "+213",
      "code": "DZ"
    },
    {
      "name": "American Samoa",
      "dial_code": "+1684",
      "code": "AS"
    },
    {
      "name": "Andorra",
      "dial_code": "+376",
      "code": "AD"
    },
    {
      "name": "Angola",
      "dial_code": "+244",
      "code": "AO"
    },
    {
      "name": "Argentina",
      "dial_code": "+54",
      "code": "AR"
    },
    {
      "name": "Armenia",
      "dial_code": "+374",
      "code": "AM"
    },
    {
      "name": "Australia",
      "dial_code": "+61",
      "code": "AU"
    },
    {
      "name": "Austria",
      "dial_code": "+43",
      "code": "AT"
    },
    {
      "name": "Azerbaijan",
      "dial_code": "+994",
      "code": "AZ"
    },
    {
      "name": "Bahrain",
      "dial_code": "+973",
      "code": "BH"
    },
    {
      "name": "Bangladesh",
      "dial_code": "+880",
      "code": "BD"
    },
    {
      "name": "Belgium",
      "dial_code": "+32",
      "code": "BE"
    },
    {
      "name": "Brazil",
      "dial_code": "+55",
      "code": "BR"
    },
    {
      "name": "Canada",
      "dial_code": "+1",
      "code": "CA"
    },
    {
      "name": "China",
      "dial_code": "+86",
      "code": "CN"
    },
    {
      "name": "France",
      "dial_code": "+33",
      "code": "FR"
    },
    {
      "name": "Germany",
      "dial_code": "+49",
      "code": "DE"
    },
    {
      "name": "India",
      "dial_code": "+91",
      "code": "IN"
    },
    {
      "name": "Italy",
      "dial_code": "+39",
      "code": "IT"
    },
    {
      "name": "Japan",
      "dial_code": "+81",
      "code": "JP"
    },
    {
      "name": "Russia",
      "dial_code": "+7",
      "code": "RU"
    },
    {
      "name": "Spain",
      "dial_code": "+34",
      "code": "ES"
    },
    {
      "name": "United Kingdom",
      "dial_code": "+44",
      "code": "GB"
    },
    {
      "name": "United States",
      "dial_code": "+1",
      "code": "US"
    }
  ]
}